ONEWEB-0058             
1 45161U 20008AG  25329.03071112 -.00000703  00000+0 -20496-2 0  9997
2 45161  87.8804  76.9821 0001897  95.8087 264.3257 13.10374168281687
ONEWEB-0059             
1 45162U 20008AH  25329.02725756 -.00000738  00000+0 -21513-2 0  9996
2 45162  87.8803  76.9834 0001727 102.7958 257.3362 13.10373646281586
ONEWEB-0062             
1 45163U 20008AJ  25328.74757091  .00000523  00000+0  14612-2 0  9994
2 45163  87.8800  77.0150 0001901  92.9694 267.1651 13.10375845281413
ONEWEB-0065             
1 45164U 20008AK  25329.01662679 -.00000328  00000+0 -95447-3 0  9994
2 45164  87.8799  76.9807 0001318 111.1719 248.9550 13.11938101281148
ONEWEB-0066             
1 45424U 20020A   25328.97653331 -.00000613  00000+0 -17659-2 0  9991
2 45424  87.8870  61.7284 0001940 109.8226 250.3111 13.11415012275915
ONEWEB-0067             
1 45425U 20020B   25329.01398170  .00000396  00000+0  10825-2 0  9999
2 45425  87.8873  61.6230 0001802 110.4935 249.6387 13.11417799275977
ONEWEB-0080             
1 45426U 20020C   25329.02316191  .00000525  00000+0  14447-2 0  9992
2 45426  87.8865  61.7198 0002101  99.9321 260.2044 13.11415776275945
ONEWEB-0090             
1 45427U 20020D   25328.96636516 -.00000055  00000+0 -19003-3 0  9995
2 45427  87.8874  61.7325 0001729 101.7442 258.3880 13.11414271275900
ONEWEB-0061             
1 45428U 20020E   25328.99843808 -.00000311  00000+0 -91277-3 0  9991
2 45428  87.8872  61.7069 0001795 104.5276 255.6051 13.11418782275869
ONEWEB-0081             
1 45429U 20020F   25328.97992044 -.00000469  00000+0 -13599-2 0  9991
2 45429  87.8869  61.7268 0001841 109.8534 250.2793 13.11416276275976
ONEWEB-0069             
1 45430U 20020G   25328.96890279 -.00000273  00000+0 -80614-3 0  9995
2 45430  87.8870  61.7258 0001773 105.6602 254.4722 13.11415508275901
ONEWEB-0031             
1 45431U 20020H   25329.01723491  .00000410  00000+0  11208-2 0  9997
2 45431  87.8860  61.7407 0001884  97.1345 262.9997 13.11417260275892
ONEWEB-0027             
1 45432U 20020J   25329.11349867 -.00005116  00000+0 -13212-1 0  9996
2 45432  87.9131  46.4191 0001736  87.5759 272.5571 13.17674799279485
ONEWEB-0064             
1 45433U 20020K   25329.01553985  .00000262  00000+0  70365-3 0  9993
2 45433  87.8863  61.7309 0001800  96.9163 263.2169 13.11416971275928
ONEWEB-0018             
1 45434U 20020L   25328.97144770 -.00000374  00000+0 -10915-2 0  9996
2 45434  87.8871  61.7285 0001909 104.7742 255.3598 13.11413844275869
ONEWEB-0083             
1 45435U 20020M   25328.96212073  .00000209  00000+0  55439-3 0  9994
2 45435  87.8871  61.7194 0001773 102.4143 257.7183 13.11413673275909
ONEWEB-0095             
1 45436U 20020N   25328.95294454  .00000421  00000+0  11525-2 0  9990
2 45436  87.8861  61.7337 0001031  98.0500 262.0745 13.11415654275906
