[{"OBJECT_NAME":"ONEWEB-0058","OBJECT_ID":"2020-008AG","EPOCH":"2025-11-25T00:44:13.440768","MEAN_MOTION":13.10374168,"ECCENTRICITY":0.0001897,"INCLINATION":87.8804,"RA_OF_ASC_NODE":76.9821,"ARG_OF_PERICENTER":95.8087,"MEAN_ANOMALY":264.3257,"EPHEMERIS_TYPE":0,"CLASSIFICATION_TYPE":"U","NORAD_CAT_ID":45161,"ELEMENT_SET_NO":999,"REV_AT_EPOCH":28168,"BSTAR":-0.0020496,"MEAN_MOTION_DOT":-7.03e-6,"MEAN_MOTION_DDOT":0},{"OBJECT_NAME":"ONEWEB-0059","OBJECT_ID":"2020-008AH","EPOCH":"2025-11-25T00:39:15.053184","MEAN_MOTION":13.10373646,"ECCENTRICITY":0.0001727,"INCLINATION":87.8803,"RA_OF_ASC_NODE":76.9834,"ARG_OF_PERICENTER":102.7958,"MEAN_ANOMALY":257.3362,"EPHEMERIS_TYPE":0,"CLASSIFICATION_TYPE":"U","NORAD_CAT_ID":45162,"ELEMENT_SET_NO":999,"REV_AT_EPOCH":28158,"BSTAR":-0.0021513,"MEAN_MOTION_DOT":-7.38e-6,"MEAN_MOTION_DDOT":0},{"OBJECT_NAME":"ONEWEB-0062","OBJECT_ID":"2020-008AJ","EPOCH":"2025-11-24T17:56:30.126624","MEAN_MOTION":13.10375845,"ECCENTRICITY":0.0001901,"INCLINATION":87.88,"RA_OF_ASC_NODE":77.015,"ARG_OF_PERICENTER":92.9694,"MEAN_ANOMALY":267.1651,"EPHEMERIS_TYPE":0,"CLASSIFICATION_TYPE":"U","NORAD_CAT_ID":45163,"ELEMENT_SET_NO":999,"REV_AT_EPOCH":28141,"BSTAR":0.0014612,"MEAN_MOTION_DOT":5.23e-6,"MEAN_MOTION_DDOT":0},{"OBJECT_NAME":"ONEWEB-0065","OBJECT_ID":"2020-008AK","EPOCH":"2025-11-25T00:23:56.554656","MEAN_MOTION":13.11938101,"ECCENTRICITY":0.0001318,"INCLINATION":87.8799,"RA_OF_ASC_NODE":76.9807,"ARG_OF_PERICENTER":111.1719,"MEAN_ANOMALY":248.955,"EPHEMERIS_TYPE":0,"CLASSIFICATION_TYPE":"U","NORAD_CAT_ID":45164,"ELEMENT_SET_NO":999,"REV_AT_EPOCH":28114,"BSTAR":-0.00095447,"MEAN_MOTION_DOT":-3.28e-6,"MEAN_MOTION_DDOT":0},{"OBJECT_NAME":"ONEWEB-0066","OBJECT_ID":"2020-020A","EPOCH":"2025-11-24T23:26:12.477984","MEAN_MOTION":13.11415012,"ECCENTRICITY":0.000194,"INCLINATION":87.887,"RA_OF_ASC_NODE":61.7284,"ARG_OF_PERICENTER":109.8226,"MEAN_ANOMALY":250.3111,"EPHEMERIS_TYPE":0,"CLASSIFICATION_TYPE":"U","NORAD_CAT_ID":45424,"ELEMENT_SET_NO":999,"REV_AT_EPOCH":27591,"BSTAR":-0.0017659,"MEAN_MOTION_DOT":-6.13e-6,"MEAN_MOTION_DDOT":0},{"OBJECT_NAME":"ONEWEB-0067","OBJECT_ID":"2020-020B","EPOCH":"2025-11-25T00:20:08.018880","MEAN_MOTION":13.11417799,"ECCENTRICITY":0.0001802,"INCLINATION":87.8873,"RA_OF_ASC_NODE":61.623,"ARG_OF_PERICENTER":110.4935,"MEAN_ANOMALY":249.6387,"EPHEMERIS_TYPE":0,"CLASSIFICATION_TYPE":"U","NORAD_CAT_ID":45425,"ELEMENT_SET_NO":999,"REV_AT_EPOCH":27597,"BSTAR":0.0010825,"MEAN_MOTION_DOT":3.96e-6,"MEAN_MOTION_DDOT":0},{"OBJECT_NAME":"ONEWEB-0080","OBJECT_ID":"2020-020C","EPOCH":"2025-11-25T00:33:21.189024","MEAN_MOTION":13.11415776,"ECCENTRICITY":0.0002101,"INCLINATION":87.8865,"RA_OF_ASC_NODE":61.7198,"ARG_OF_PERICENTER":99.9321,"MEAN_ANOMALY":260.2044,"EPHEMERIS_TYPE":0,"CLASSIFICATION_TYPE":"U","NORAD_CAT_ID":45426,"ELEMENT_SET_NO":999,"REV_AT_EPOCH":27594,"BSTAR":0.0014447,"MEAN_MOTION_DOT":5.25e-6,"MEAN_MOTION_DDOT":0},{"OBJECT_NAME":"ONEWEB-0090","OBJECT_ID":"2020-020D","EPOCH":"2025-11-24T23:11:33.949824","MEAN_MOTION":13.11414271,"ECCENTRICITY":0.0001729,"INCLINATION":87.8874,"RA_OF_ASC_NODE":61.7325,"ARG_OF_PERICENTER":101.7442,"MEAN_ANOMALY":258.388,"EPHEMERIS_TYPE":0,"CLASSIFICATION_TYPE":"U","NORAD_CAT_ID":45427,"ELEMENT_SET_NO":999,"REV_AT_EPOCH":27590,"BSTAR":-0.00019003,"MEAN_MOTION_DOT":-5.5e-7,"MEAN_MOTION_DDOT":0},{"OBJECT_NAME":"ONEWEB-0061","OBJECT_ID":"2020-020E","EPOCH":"2025-11-24T23:57:45.050112","MEAN_MOTION":13.11418782,"ECCENTRICITY":0.0001795,"INCLINATION":87.8872,"RA_OF_ASC_NODE":61.7069,"ARG_OF_PERICENTER":104.5276,"MEAN_ANOMALY":255.6051,"EPHEMERIS_TYPE":0,"CLASSIFICATION_TYPE":"U","NORAD_CAT_ID":45428,"ELEMENT_SET_NO":999,"REV_AT_EPOCH":27586,"BSTAR":-0.00091277,"MEAN_MOTION_DOT":-3.11e-6,"MEAN_MOTION_DDOT":0},{"OBJECT_NAME":"ONEWEB-0081","OBJECT_ID":"2020-020F","EPOCH":"2025-11-24T23:31:05.126016","MEAN_MOTION":13.11416276,"ECCENTRICITY":0.0001841,"INCLINATION":87.8869,"RA_OF_ASC_NODE":61.7268,"ARG_OF_PERICENTER":109.8534,"MEAN_ANOMALY":250.2793,"EPHEMERIS_TYPE":0,"CLASSIFICATION_TYPE":"U","NORAD_CAT_ID":45429,"ELEMENT_SET_NO":999,"REV_AT_EPOCH":27597,"BSTAR":-0.0013599,"MEAN_MOTION_DOT":-4.69e-6,"MEAN_MOTION_DDOT":0},{"OBJECT_NAME":"ONEWEB-0069","OBJECT_ID":"2020-020G","EPOCH":"2025-11-24T23:15:13.201056","MEAN_MOTION":13.11415508,"ECCENTRICITY":0.0001773,"INCLINATION":87.887,"RA_OF_ASC_NODE":61.7258,"ARG_OF_PERICENTER":105.6602,"MEAN_ANOMALY":254.4722,"EPHEMERIS_TYPE":0,"CLASSIFICATION_TYPE":"U","NORAD_CAT_ID":45430,"ELEMENT_SET_NO":999,"REV_AT_EPOCH":27590,"BSTAR":-0.00080614,"MEAN_MOTION_DOT":-2.73e-6,"MEAN_MOTION_DDOT":0},{"OBJECT_NAME":"ONEWEB-0031","OBJECT_ID":"2020-020H","EPOCH":"2025-11-25T00:24:49.096224","MEAN_MOTION":13.1141726,"ECCENTRICITY":0.0001884,"INCLINATION":87.886,"RA_OF_ASC_NODE":61.7407,"ARG_OF_PERICENTER":97.1345,"MEAN_ANOMALY":262.9997,"EPHEMERIS_TYPE":0,"CLASSIFICATION_TYPE":"U","NORAD_CAT_ID":45431,"ELEMENT_SET_NO":999,"REV_AT_EPOCH":27589,"BSTAR":0.0011208,"MEAN_MOTION_DOT":4.1e-6,"MEAN_MOTION_DDOT":0},{"OBJECT_NAME":"ONEWEB-0027","OBJECT_ID":"2020-020J","EPOCH":"2025-11-25T02:43:26.285088","MEAN_MOTION":13.17674799,"ECCENTRICITY":0.0001736,"INCLINATION":87.9131,"RA_OF_ASC_NODE":46.4191,"ARG_OF_PERICENTER":87.5759,"MEAN_ANOMALY":272.5571,"EPHEMERIS_TYPE":0,"CLASSIFICATION_TYPE":"U","NORAD_CAT_ID":45432,"ELEMENT_SET_NO":999,"REV_AT_EPOCH":27948,"BSTAR":-0.013212,"MEAN_MOTION_DOT":-5.116e-5,"MEAN_MOTION_DDOT":0},{"OBJECT_NAME":"ONEWEB-0064","OBJECT_ID":"2020-020K","EPOCH":"2025-11-25T00:22:22.643040","MEAN_MOTION":13.11416971,"ECCENTRICITY":0.00018,"INCLINATION":87.8863,"RA_OF_ASC_NODE":61.7309,"ARG_OF_PERICENTER":96.9163,"MEAN_ANOMALY":263.2169,"EPHEMERIS_TYPE":0,"CLASSIFICATION_TYPE":"U","NORAD_CAT_ID":45433,"ELEMENT_SET_NO":999,"REV_AT_EPOCH":27592,"BSTAR":0.00070365,"MEAN_MOTION_DOT":2.62e-6,"MEAN_MOTION_DDOT":0},{"OBJECT_NAME":"ONEWEB-0018","OBJECT_ID":"2020-020L","EPOCH":"2025-11-24T23:18:53.081280","MEAN_MOTION":13.11413844,"ECCENTRICITY":0.0001909,"INCLINATION":87.8871,"RA_OF_ASC_NODE":61.7285,"ARG_OF_PERICENTER":104.7742,"MEAN_ANOMALY":255.3598,"EPHEMERIS_TYPE":0,"CLASSIFICATION_TYPE":"U","NORAD_CAT_ID":45434,"ELEMENT_SET_NO":999,"REV_AT_EPOCH":27586,"BSTAR":-0.0010915,"MEAN_MOTION_DOT":-3.74e-6,"MEAN_MOTION_DDOT":0},{"OBJECT_NAME":"ONEWEB-0083","OBJECT_ID":"2020-020M","EPOCH":"2025-11-24T23:05:27.231072","MEAN_MOTION":13.11413673,"ECCENTRICITY":0.0001773,"INCLINATION":87.8871,"RA_OF_ASC_NODE":61.7194,"ARG_OF_PERICENTER":102.4143,"MEAN_ANOMALY":257.7183,"EPHEMERIS_TYPE":0,"CLASSIFICATION_TYPE":"U","NORAD_CAT_ID":45435,"ELEMENT_SET_NO":999,"REV_AT_EPOCH":27590,"BSTAR":0.00055439,"MEAN_MOTION_DOT":2.09e-6,"MEAN_MOTION_DDOT":0},{"OBJECT_NAME":"ONEWEB-0095","OBJECT_ID":"2020-020N","EPOCH":"2025-11-24T22:52:14.408256","MEAN_MOTION":13.11415654,"ECCENTRICITY":0.0001031,"INCLINATION":87.8861,"RA_OF_ASC_NODE":61.7337,"ARG_OF_PERICENTER":98.05,"MEAN_ANOMALY":262.0745,"EPHEMERIS_TYPE":0,"CLASSIFICATION_TYPE":"U","NORAD_CAT_ID":45436,"ELEMENT_SET_NO":999,"REV_AT_EPOCH":27590,"BSTAR":0.0011525,"MEAN_MOTION_DOT":4.21e-6,"MEAN_MOTION_DDOT":0}]
